IRIDIUM 144             
1 43249U 18030A   24161.77734810  .00000348  00000+0  11723-3 0  9996
2 43249  86.3983 238.5559 0002403 100.8690 259.2776 14.34221398324443
IRIDIUM 149             
1 43250U 18030B   24161.92323416  .00000062  00000+0  15078-4 0  9992
2 43250  86.3983 238.4701 0002435  96.7638 263.3835 14.34218057324487
IRIDIUM 157             
1 43251U 18030C   24161.94226181  .00000079  00000+0  21237-4 0  9998
2 43251  86.3985 238.4989 0002388  87.4564 272.6906 14.34218148324461
IRIDIUM 140             
1 43252U 18030D   24161.82175040  .00000545  00000+0  18750-3 0  9996
2 43252  86.3985 238.5641 0002085 105.8353 254.3072 14.34218394324502
IRIDIUM 145             
1 43253U 18030E   24162.22767938 -.00000064  00000+0 -29931-4 0  9997
2 43253  86.3986 238.3680 0002569 101.4508 258.6976 14.34217167324491
IRIDIUM 146             
1 43254U 18030F   24161.79003939  .00000005  00000+0 -54542-5 0  9994
2 43254  86.3986 238.5657 0002329  98.6931 261.4529 14.34217749324446
IRIDIUM 148             
1 43255U 18030G   24161.82809784  .00000553  00000+0  19043-3 0  9993
2 43255  86.3984 238.5814 0002486  91.6842 268.4638 14.34223083324488
IRIDIUM 142             
1 43256U 18030H   24161.93591493  .00000452  00000+0  15423-3 0  9997
2 43256  86.3983 238.4524 0002521 100.0119 260.1362 14.34221188324462
